{
"type": "FeatureCollection",
"name": "transport_utf8",
"crs": { "type": "name", "properties": { "name": "urn:ogc:def:crs:OGC:1.3:CRS84" } },
"features": [
{ "type": "Feature", "properties": { "type": "A", "name": "Milan Malpensa Airport (MXP)" }, "geometry": { "type": "Point", "coordinates": [ 8.7282345, 45.6227139 ] } },
{ "type": "Feature", "properties": { "type": "A", "name": "Venice-Treviso Airport (TSF)" }, "geometry": { "type": "Point", "coordinates": [ 12.1944795, 45.6498881 ] } },
{ "type": "Feature", "properties": { "type": "A", "name": "Venice Marco Polo Airport (VCE)" }, "geometry": { "type": "Point", "coordinates": [ 12.3466295, 45.5046844 ] } },
{ "type": "Feature", "properties": { "type": "A", "name": "Fiumicino Airport (FCO)" }, "geometry": { "type": "Point", "coordinates": [ 12.2519211, 41.8034632 ] } },
{ "type": "Feature", "properties": { "type": "A", "name": "Bergamo Orio al Serio International Airport (BGY)" }, "geometry": { "type": "Point", "coordinates": [ 9.7074055, 45.668978 ] } },
{ "type": "Feature", "properties": { "type": "A", "name": "Milano Linate Airport (LIN)" }, "geometry": { "type": "Point", "coordinates": [ 9.2762862, 45.4533303 ] } },
{ "type": "Feature", "properties": { "type": "C", "name": "Funivia Renon" }, "geometry": { "type": "Point", "coordinates": [ 11.3641448, 46.499963 ] } },
{ "type": "Feature", "properties": { "type": "C", "name": "Funivia del Renon" }, "geometry": { "type": "Point", "coordinates": [ 11.4050672, 46.5278295 ] } },
{ "type": "Feature", "properties": { "type": "C", "name": "Telecabina Ortisei - Alpe di Siusi? Cable Car" }, "geometry": { "type": "Point", "coordinates": [ 11.664681, 46.5579784 ] } },
{ "type": "Feature", "properties": { "type": "C", "name": "Funivia Sass Pordoi - Stazione a Valle? Cable Car" }, "geometry": { "type": "Point", "coordinates": [ 11.8111954, 46.4882889 ] } },
{ "type": "Feature", "properties": { "type": "C", "name": "Funivie Ortisei - Alpe di Siusi? Cable Car" }, "geometry": { "type": "Point", "coordinates": [ 11.6712967, 46.5729094 ] } },
{ "type": "Feature", "properties": { "type": "C", "name": "Lagazuoi Cable Car" }, "geometry": { "type": "Point", "coordinates": [ 12.0085266, 46.5191511 ] } },
{ "type": "Feature", "properties": { "type": "C", "name": "Pedaga - Piz de Plaies Cable Car" }, "geometry": { "type": "Point", "coordinates": [ 11.9279775, 46.7006012 ] } },
{ "type": "Feature", "properties": { "type": "C", "name": "Cable car / Cablecar Tofana - Arrow in the sky" }, "geometry": { "type": "Point", "coordinates": [ 12.1313807, 46.5457702 ] } },
{ "type": "Feature", "properties": { "type": "C", "name": "Seceda Cable Car" }, "geometry": { "type": "Point", "coordinates": [ 11.6748572, 46.5764597 ] } },
{ "type": "Feature", "properties": { "type": "T", "name": "San Candido train station" }, "geometry": { "type": "Point", "coordinates": [ 12.2724761, 46.7326694 ] } },
{ "type": "Feature", "properties": { "type": "T", "name": "Dobbiaco train station" }, "geometry": { "type": "Point", "coordinates": [ 12.2254472, 46.7247969 ] } },
{ "type": "Feature", "properties": { "type": "T", "name": "Niederdorf train station" }, "geometry": { "type": "Point", "coordinates": [ 12.1668897, 46.7365487 ] } },
{ "type": "Feature", "properties": { "type": "T", "name": "Monguelfo train station" }, "geometry": { "type": "Point", "coordinates": [ 12.1073832, 46.7529266 ] } },
{ "type": "Feature", "properties": { "type": "T", "name": "Plan de Corones train station" }, "geometry": { "type": "Point", "coordinates": [ 11.9780296, 46.790345 ] } },
{ "type": "Feature", "properties": { "type": "T", "name": "Ehrenburg train station" }, "geometry": { "type": "Point", "coordinates": [ 11.8440774, 46.7976074 ] } },
{ "type": "Feature", "properties": { "type": "T", "name": "Vandoies train station" }, "geometry": { "type": "Point", "coordinates": [ 11.7229559, 46.8149666 ] } },
{ "type": "Feature", "properties": { "type": "T", "name": "Mühlbach train station" }, "geometry": { "type": "Point", "coordinates": [ 11.6698037, 46.7971919 ] } },
{ "type": "Feature", "properties": { "type": "T", "name": "Fortezza train station" }, "geometry": { "type": "Point", "coordinates": [ 11.6102734, 46.7888925 ] } },
{ "type": "Feature", "properties": { "type": "T", "name": "Bressanone train station" }, "geometry": { "type": "Point", "coordinates": [ 11.6500255, 46.7099822 ] } },
{ "type": "Feature", "properties": { "type": "T", "name": "Chiusa train station" }, "geometry": { "type": "Point", "coordinates": [ 11.572687, 46.642573 ] } },
{ "type": "Feature", "properties": { "type": "T", "name": "Ponte Gardena train station" }, "geometry": { "type": "Point", "coordinates": [ 11.5327676, 46.601143 ] } },
{ "type": "Feature", "properties": { "type": "T", "name": "Bozen train station" }, "geometry": { "type": "Point", "coordinates": [ 11.3583659, 46.4967327 ] } },
{ "type": "Feature", "properties": { "type": "T", "name": "Laives train station" }, "geometry": { "type": "Point", "coordinates": [ 11.32354, 46.434069 ] } },
{ "type": "Feature", "properties": { "type": "T", "name": "Bronzolo train station" }, "geometry": { "type": "Point", "coordinates": [ 11.3162199, 46.4050363 ] } },
{ "type": "Feature", "properties": { "type": "T", "name": "Ora Auer train station" }, "geometry": { "type": "Point", "coordinates": [ 11.2968719, 46.3608862 ] } },
{ "type": "Feature", "properties": { "type": "T", "name": "Magre'-cortaccia train station" }, "geometry": { "type": "Point", "coordinates": [ 11.2324275, 46.2880546 ] } },
{ "type": "Feature", "properties": { "type": "T", "name": "Egna - Termeno train station" }, "geometry": { "type": "Point", "coordinates": [ 11.2574385, 46.3193358 ] } },
{ "type": "Feature", "properties": { "type": "T", "name": "Salorno train station" }, "geometry": { "type": "Point", "coordinates": [ 11.2028732, 46.245662 ] } },
{ "type": "Feature", "properties": { "type": "T", "name": "Mezzocorona Ferrovia train station" }, "geometry": { "type": "Point", "coordinates": [ 11.1273287, 46.2063822 ] } },
{ "type": "Feature", "properties": { "type": "T", "name": "Lavis train station" }, "geometry": { "type": "Point", "coordinates": [ 11.0962831, 46.1482294 ] } },
{ "type": "Feature", "properties": { "type": "T", "name": "Spini-Zona Industriale train station" }, "geometry": { "type": "Point", "coordinates": [ 11.1051295, 46.1185137 ] } },
{ "type": "Feature", "properties": { "type": "T", "name": "Trento Ftm train station" }, "geometry": { "type": "Point", "coordinates": [ 11.1208014, 46.0743901 ] } }
]
}
